OBJECT_NAME,OBJECT_ID,EPOCH,MEAN_MOTION,ECCENTRICITY,INCLINATION,RA_OF_ASC_NODE,ARG_OF_PERICENTER,MEAN_ANOMALY,EPHEMERIS_TYPE,CLASSIFICATION_TYPE,NORAD_CAT_ID,ELEMENT_SET_NO,REV_AT_EPOCH,BSTAR,MEAN_MOTION_DOT,MEAN_MOTION_DDOT
HELLAS-SAT 3,2017-040A,2026-06-06T13:39:26.667360,1.00272918,.00047986,0.0526,51.2298,358.6253,88.9893,0,U,42814,999,3270,0,.166E-5,0
GSAT-17,2017-040B,2026-06-06T08:47:02.209056,1.00270624,.00016595,0.0988,88.5489,214.5331,176.9704,0,U,42815,999,3268,0,-.244E-5,0
INTELSAT 35E (IS-35E),2017-041A,2026-06-06T11:35:50.487072,1.00273362,.0001915,0.0138,46.2265,28.2503,319.9042,0,U,42818,999,3270,0,-.224E-5,0
COSMOS 2520,2017-046A,2026-06-06T11:58:28.855776,1.00269100,.00012591,0.0451,86.3505,60.7626,332.4391,0,U,42907,999,3229,0,.15E-5,0
TDRS 13,2017-047A,2026-06-06T09:59:38.755392,1.00272339,.00146722,3.4487,2.4526,104.6492,286.2057,0,U,42915,999,3224,0,-.87E-6,0
QZS-3 (MICHIBIKI-3),2017-048A,2026-06-06T14:04:35.365152,1.00270908,.00027835,0.0582,188.4481,256.4388,148.2996,0,U,42917,999,3215,0,-.334E-5,0
AMAZONAS 5,2017-053A,2026-06-06T13:10:55.773696,1.00273079,.00027367,0.0338,318.5242,71.7502,1.4437,0,U,42934,999,3193,0,-.269E-5,0
ASIASAT 9,2017-057A,2026-06-06T10:37:53.013216,1.00270371,.00024518,0.0062,349.0884,80.0446,107.2950,0,U,42942,999,3175,0,-.346E-5,0
INTELSAT 37E (IS-37E),2017-059A,2026-06-06T09:57:53.921952,1.00271718,.00025805,0.0117,42.3787,49.6271,294.3179,0,U,42950,999,3195,0,-.127E-5,0
BSAT-4A,2017-059B,2026-06-06T15:03:02.947680,1.00269553,.0004401,0.0348,358.8420,68.6993,163.0918,0,U,42951,999,3169,0,-.337E-5,0
QZS-4 (MICHIBIKI-4),2017-062A,2026-06-06T08:56:51.495936,1.00254650,.07448937,40.1149,343.6213,271.5546,271.6824,0,U,42965,999,3169,0,-.313E-5,0
SES-11 (ECHOSTAR 105),2017-063A,2026-06-06T12:58:26.970816,1.00271229,.0002827,0.0162,333.5307,112.8586,258.2352,0,U,42967,999,3161,0,-.76E-6,0
KOREASAT 5A,2017-067A,2026-06-06T14:00:35.747712,1.00275197,.00007844,0.0164,302.4931,120.9553,154.8584,0,U,42984,999,3142,0,-.345E-5,0
ALCOMSAT 1,2017-078A,2026-06-06T09:55:54.113664,1.00273540,.00025158,0.0263,58.5457,13.2125,307.2446,0,U,43039,999,3118,0,-.173E-5,0
SBIRS GEO-3 (USA 282),2018-009A,2026-06-06T11:07:38.610912,1.00272227,.00022164,2.1762,11.5747,60.9679,189.8569,0,U,43162,999,3073,0,.141E-5,0
AL YAH 3,2018-012A,2026-06-06T09:57:16.482240,1.00272049,.00042565,1.5233,83.2396,352.7460,308.0762,0,U,43174,999,3073,0,-.142E-5,0
SES-14,2018-012B,2026-06-06T11:31:43.382208,1.00272478,.00012473,0.0186,21.3526,59.5828,299.3996,0,U,43175,999,691,0,-.265E-5,0
GOES 17,2018-022A,2026-06-06T13:02:49.052256,1.00271058,.00006916,0.9099,85.9077,12.6777,262.5880,0,U,43226,999,3031,0,-.169E-5,0
HISPASAT 30W-6,2018-023A,2026-06-05T16:47:49.510176,1.00271555,.00063631,0.0439,39.0168,26.2252,50.8495,0,U,43228,999,3029,0,-.203E-5,0
SUPERBIRD-B3,2018-033A,2026-06-06T14:37:12.635328,1.00271216,.00013683,0.0249,287.8653,165.6622,182.8143,0,U,43271,999,2995,0,-.79E-6,0
HYLAS 4,2018-033B,2026-06-05T18:29:26.675232,1.00270613,.00014217,0.0242,65.9969,14.6783,57.4307,0,U,43272,999,2995,0,-.221E-5,0
IRNSS-1I,2018-035A,2026-06-05T20:37:08.328288,1.00269424,.0017208,28.7274,74.3793,232.0250,312.2399,0,U,43286,999,2996,0,.9E-6,0
USA 283,2018-036A,2026-06-04T10:46:37.311744,1.00268935,.0000547,0.0148,344.8211,104.8728,98.9470,0,U,43339,999,2516,0,0,0
COSMOS 2526,2018-037A,2026-06-06T05:31:29.339616,1.00273242,.0000874,0.0119,12.3339,250.6118,202.6342,0,U,43432,999,2985,0,-.331E-5,0
APSTAR-6C,2018-041A,2026-06-06T13:59:04.283808,1.00274500,.0001311,0.0290,321.4337,37.8341,239.4933,0,U,43450,999,2970,0,-.304E-5,0
BANGABANDHUSAT-1,2018-044A,2026-06-06T14:02:20.581152,1.00273298,.0002025,0.0357,92.2095,353.6664,138.8115,0,U,43463,999,2960,0,-.349E-5,0
SES-12,2018-049A,2026-06-06T14:02:54.093984,1.00269525,.00007803,0.0290,45.4065,250.0457,265.2788,0,U,43488,999,2931,0,-.256E-5,0
FENGYUN 2H,2018-050A,2026-06-06T13:51:03.053952,1.00271725,.00014479,3.0036,79.1959,126.7586,336.2580,0,U,43491,999,2933,0,-.117E-5,0
BEIDOU-2 IGSO-7,2018-057A,2026-06-06T10:34:38.323776,1.00254878,.01047141,55.1931,163.1513,237.9372,123.1911,0,U,43539,999,2902,0,.1E-6,0
TELSTAR 19V,2018-059A,2026-06-06T13:10:18.333984,1.00272031,.00027198,0.0203,156.9664,303.7766,288.7931,0,U,43562,999,2903,0,-.266E-5,0
TELKOM 4 (MERAH PUTIH),2018-064A,2026-06-06T14:01:44.162688,1.00272753,.00014973,0.0186,301.4792,158.4075,113.5538,0,U,43587,999,2877,0,-.331E-5,0
