HELLAS-SAT 3            
1 42814U 17040A   26157.56905865  .00000166  00000+0  00000+0 0  9997
2 42814   0.0526  51.2298 0004798 358.6253  88.9893  1.00272918 32708
GSAT-17                 
1 42815U 17040B   26157.36599779 -.00000244  00000+0  00000+0 0  9997
2 42815   0.0988  88.5489 0001659 214.5331 176.9704  1.00270624 32684
INTELSAT 35E (IS-35E)   
1 42818U 17041A   26157.48322323 -.00000224  00000+0  00000+0 0  9991
2 42818   0.0138  46.2265 0001915  28.2503 319.9042  1.00273362 32702
COSMOS 2520             
1 42907U 17046A   26157.49894509  .00000150  00000+0  00000+0 0  9993
2 42907   0.0451  86.3505 0001259  60.7626 332.4391  1.00269100 32295
TDRS 13                 
1 42915U 17047A   26157.41642078 -.00000087  00000+0  00000+0 0  9997
2 42915   3.4487   2.4526 0014672 104.6492 286.2057  1.00272339 32242
QZS-3 (MICHIBIKI-3)     
1 42917U 17048A   26157.58652043 -.00000334  00000+0  00000+0 0  9996
2 42917   0.0582 188.4481 0002783 256.4388 148.2996  1.00270908 32157
AMAZONAS 5              
1 42934U 17053A   26157.54925664 -.00000269  00000+0  00000+0 0  9996
2 42934   0.0338 318.5242 0002736  71.7502   1.4437  1.00273079 31937
ASIASAT 9               
1 42942U 17057A   26157.44297469 -.00000346  00000+0  00000+0 0  9999
2 42942   0.0062 349.0884 0002451  80.0446 107.2950  1.00270371 31752
INTELSAT 37E (IS-37E)   
1 42950U 17059A   26157.41520743 -.00000127  00000+0  00000+0 0  9998
2 42950   0.0117  42.3787 0002580  49.6271 294.3179  1.00271718 31956
BSAT-4A                 
1 42951U 17059B   26157.62711745 -.00000337  00000+0  00000+0 0  9999
2 42951   0.0348 358.8420 0004401  68.6993 163.0918  1.00269553 31696
QZS-4 (MICHIBIKI-4)     
1 42965U 17062A   26157.37281824 -.00000313  00000+0  00000+0 0  9994
2 42965  40.1149 343.6213 0744893 271.5546 271.6824  1.00254650 31696
SES-11 (ECHOSTAR 105)   
1 42967U 17063A   26157.54058994 -.00000076  00000+0  00000+0 0  9992
2 42967   0.0162 333.5307 0002827 112.8586 258.2352  1.00271229 31615
KOREASAT 5A             
1 42984U 17067A   26157.58374708 -.00000345  00000+0  00000+0 0  9992
2 42984   0.0164 302.4931 0000784 120.9553 154.8584  1.00275197 31423
ALCOMSAT 1              
1 43039U 17078A   26157.41382076 -.00000173  00000+0  00000+0 0  9994
2 43039   0.0263  58.5457 0002515  13.2125 307.2446  1.00273540 31184
SBIRS GEO-3 (USA 282)   
1 43162U 18009A   26157.46364133  .00000141  00000+0  00000+0 0  9999
2 43162   2.1762  11.5747 0002216  60.9679 189.8569  1.00272227 30731
AL YAH 3                
1 43174U 18012A   26157.41477410 -.00000142  00000+0  00000+0 0  9996
2 43174   1.5233  83.2396 0004256 352.7460 308.0762  1.00272049 30734
SES-14                  
1 43175U 18012B   26157.48036322 -.00000265  00000+0  00000+0 0  9993
2 43175   0.0186  21.3526 0001247  59.5828 299.3996  1.00272478  6911
GOES 17                 
1 43226U 18022A   26157.54362329 -.00000169  00000+0  00000+0 0  9990
2 43226   0.9099  85.9077 0000691  12.6777 262.5880  1.00271058 30310
HISPASAT 30W-6          
1 43228U 18023A   26156.69987859 -.00000203  00000+0  00000+0 0  9998
2 43228   0.0439  39.0168 0006363  26.2252  50.8495  1.00271555 30292
SUPERBIRD-B3            
1 43271U 18033A   26157.60917402 -.00000079  00000+0  00000+0 0  9997
2 43271   0.0249 287.8653 0001368 165.6622 182.8143  1.00271216 29951
HYLAS 4                 
1 43272U 18033B   26156.77044763 -.00000221  00000+0  00000+0 0  9995
2 43272   0.0242  65.9969 0001421  14.6783  57.4307  1.00270613 29950
IRNSS-1I                
1 43286U 18035A   26156.85912417  .00000090  00000+0  00000+0 0  9994
2 43286  28.7274  74.3793 0017208 232.0250 312.2399  1.00269424 29963
USA 283                 
1 43339U 18036A   26155.44904296  .00000000  00000+0  00000+0 0  9995
2 43339   0.0148 344.8211 0000547 104.8728  98.9470  1.00268935 25161
COSMOS 2526             
1 43432U 18037A   26157.23020069 -.00000331  00000+0  00000+0 0  9994
2 43432   0.0119  12.3339 0000874 250.6118 202.6342  1.00273242 29856
APSTAR-6C               
1 43450U 18041A   26157.58268847 -.00000304  00000+0  00000+0 0  9995
2 43450   0.0290 321.4337 0001311  37.8341 239.4933  1.00274500 29704
BANGABANDHUSAT-1        
1 43463U 18044A   26157.58496043 -.00000349  00000+0  00000+0 0  9992
2 43463   0.0357  92.2095 0002025 353.6664 138.8115  1.00273298 29602
SES-12                  
1 43488U 18049A   26157.58534831 -.00000256  00000+0  00000+0 0  9999
2 43488   0.0290  45.4065 0000780 250.0457 265.2788  1.00269525 29315
FENGYUN 2H              
1 43491U 18050A   26157.57711868 -.00000117  00000+0  00000+0 0  9997
2 43491   3.0036  79.1959 0001447 126.7586 336.2580  1.00271725 29335
BEIDOU-2 IGSO-7         
1 43539U 18057A   26157.44072134  .00000010  00000+0  00000+0 0  9990
2 43539  55.1931 163.1513 0104714 237.9372 123.1911  1.00254878 29026
TELSTAR 19V             
1 43562U 18059A   26157.54882331 -.00000266  00000+0  00000+0 0  9991
2 43562   0.0203 156.9664 0002719 303.7766 288.7931  1.00272031 29033
TELKOM 4 (MERAH PUTIH)  
1 43587U 18064A   26157.58453892 -.00000331  00000+0  00000+0 0  9997
2 43587   0.0186 301.4792 0001497 158.4075 113.5538  1.00272753 28778
